STARLINK-31588          
1 59335U 24057R   25221.58028099  .00001325  00000+0  57633-4 0  9994
2 59335  42.9998 304.6173 0000985 268.7786  91.2952 15.27589772 78587
STARLINK-31596          
1 59336U 24057S   25221.51875427  .00000254  00000+0  18736-4 0  9994
2 59336  43.0005 305.0155 0001151 268.8925  91.1794 15.27588214 77397
STARLINK-31612          
1 59337U 24057T   25221.54187661  .00001938  00000+0  79879-4 0  9999
2 59337  43.0014 305.1884 0000643 279.7641  80.3138 15.27592991 77398
STARLINK-31550          
1 59338U 24057U   25221.50219119  .00000760  00000+0  37130-4 0  9996
2 59338  43.0018 305.7487 0001458 269.1234  90.9451 15.27591800 77386
STARLINK-31473          
1 59339U 24057V   25221.53030993  .00000191  00000+0  16457-4 0  9998
2 59339  42.9978 305.1033 0000923 253.2260 106.8490 15.27602438 77391
STARLINK-31562          
1 59340U 24057W   25221.56065046  .00001682  00000+0  70634-4 0  9993
2 59340  43.0008 320.0495 0002535 279.7230  80.3335 15.27594225 77228
STARLINK-31600          
1 59341U 24057X   25221.53462953  .00001487  00000+0  63516-4 0  9993
2 59341  43.0009 312.9223 0001045 268.3543  91.7189 15.27591403 77302
STARLINK-31628          
1 59342U 24057Y   25221.55088095  .00002681  00000+0  10690-3 0  9998
2 59342  43.0018 305.2554 0001277 304.4610  55.6120 15.27580892 77392
STARLINK-31605          
1 59348U 24060A   25221.69062678  .00003587  00000+0  13976-3 0  9998
2 59348  42.9989   6.4490 0000508 268.9560  91.1234 15.27590530 77690
STARLINK-31532          
1 59349U 24060B   25221.77769066  .00003219  00000+0  12636-3 0  9997
2 59349  43.0032  16.6272 0001655 269.5391  90.5271 15.27601146 77696
STARLINK-31593          
1 59350U 24060C   25221.48660653  .00002471  00000+0  99277-4 0  9995
2 59350  43.0035  17.8813 0001159 270.6740  89.3978 15.27581036 77612
STARLINK-31555          
1 59351U 24060D   25221.72001309  .00002241  00000+0  90882-4 0  9998
2 59351  42.9999  17.0520 0001735 283.8029  76.2629 15.27595370 77684
STARLINK-31561          
1 59352U 24060E   25221.74557498  .00003249  00000+0  12742-3 0  9993
2 59352  43.0037  16.3844 0000871 272.8926  87.1826 15.27610069 77633
STARLINK-31413          
1 59353U 24060F   25221.17124165  .00003014  00000+0  11901-3 0  9998
2 59353  43.0040  19.8110 0001621 264.0821  95.9846 15.27584212 77553
STARLINK-31422          
1 59354U 24060G   25221.74185531  .00003590  00000+0  13986-3 0  9990
2 59354  43.0047  17.2155 0001284 284.5134  75.5575 15.27593985 77630
STARLINK-31416          
1 59355U 24060H   25221.12769494  .00001663  00000+0  69939-4 0  9998
2 59355  43.0018  20.3417 0001448 270.1186  89.9500 15.27590107 77556
STARLINK-31552          
1 59356U 24060J   25221.73802899 -.00004780  00000+0 -16417-3 0  9990
2 59356  43.0011  17.2003 0000931 296.9355  63.1402 15.27603962 77645
