[{"OBJECT_NAME":"STARLINK-31588","OBJECT_ID":"2024-057R","EPOCH":"2025-08-09T13:55:36.277536","MEAN_MOTION":15.27589772,"ECCENTRICITY":9.85e-5,"INCLINATION":42.9998,"RA_OF_ASC_NODE":304.6173,"ARG_OF_PERICENTER":268.7786,"MEAN_ANOMALY":91.2952,"EPHEMERIS_TYPE":0,"CLASSIFICATION_TYPE":"U","NORAD_CAT_ID":59335,"ELEMENT_SET_NO":999,"REV_AT_EPOCH":7858,"BSTAR":5.7633e-5,"MEAN_MOTION_DOT":1.325e-5,"MEAN_MOTION_DDOT":0},{"OBJECT_NAME":"STARLINK-31596","OBJECT_ID":"2024-057S","EPOCH":"2025-08-09T12:27:00.368928","MEAN_MOTION":15.27588214,"ECCENTRICITY":0.0001151,"INCLINATION":43.0005,"RA_OF_ASC_NODE":305.0155,"ARG_OF_PERICENTER":268.8925,"MEAN_ANOMALY":91.1794,"EPHEMERIS_TYPE":0,"CLASSIFICATION_TYPE":"U","NORAD_CAT_ID":59336,"ELEMENT_SET_NO":999,"REV_AT_EPOCH":7739,"BSTAR":1.8736e-5,"MEAN_MOTION_DOT":2.54e-6,"MEAN_MOTION_DDOT":0},{"OBJECT_NAME":"STARLINK-31612","OBJECT_ID":"2024-057T","EPOCH":"2025-08-09T13:00:18.139104","MEAN_MOTION":15.27592991,"ECCENTRICITY":6.43e-5,"INCLINATION":43.0014,"RA_OF_ASC_NODE":305.1884,"ARG_OF_PERICENTER":279.7641,"MEAN_ANOMALY":80.3138,"EPHEMERIS_TYPE":0,"CLASSIFICATION_TYPE":"U","NORAD_CAT_ID":59337,"ELEMENT_SET_NO":999,"REV_AT_EPOCH":7739,"BSTAR":7.9879e-5,"MEAN_MOTION_DOT":1.938e-5,"MEAN_MOTION_DDOT":0},{"OBJECT_NAME":"STARLINK-31550","OBJECT_ID":"2024-057U","EPOCH":"2025-08-09T12:03:09.318816","MEAN_MOTION":15.275918,"ECCENTRICITY":0.0001458,"INCLINATION":43.0018,"RA_OF_ASC_NODE":305.7487,"ARG_OF_PERICENTER":269.1234,"MEAN_ANOMALY":90.9451,"EPHEMERIS_TYPE":0,"CLASSIFICATION_TYPE":"U","NORAD_CAT_ID":59338,"ELEMENT_SET_NO":999,"REV_AT_EPOCH":7738,"BSTAR":3.713e-5,"MEAN_MOTION_DOT":7.6e-6,"MEAN_MOTION_DDOT":0},{"OBJECT_NAME":"STARLINK-31473","OBJECT_ID":"2024-057V","EPOCH":"2025-08-09T12:43:38.777952","MEAN_MOTION":15.27602438,"ECCENTRICITY":9.23e-5,"INCLINATION":42.9978,"RA_OF_ASC_NODE":305.1033,"ARG_OF_PERICENTER":253.226,"MEAN_ANOMALY":106.849,"EPHEMERIS_TYPE":0,"CLASSIFICATION_TYPE":"U","NORAD_CAT_ID":59339,"ELEMENT_SET_NO":999,"REV_AT_EPOCH":7739,"BSTAR":1.6457e-5,"MEAN_MOTION_DOT":1.91e-6,"MEAN_MOTION_DDOT":0},{"OBJECT_NAME":"STARLINK-31562","OBJECT_ID":"2024-057W","EPOCH":"2025-08-09T13:27:20.199744","MEAN_MOTION":15.27594225,"ECCENTRICITY":0.0002535,"INCLINATION":43.0008,"RA_OF_ASC_NODE":320.0495,"ARG_OF_PERICENTER":279.723,"MEAN_ANOMALY":80.3335,"EPHEMERIS_TYPE":0,"CLASSIFICATION_TYPE":"U","NORAD_CAT_ID":59340,"ELEMENT_SET_NO":999,"REV_AT_EPOCH":7722,"BSTAR":7.0634e-5,"MEAN_MOTION_DOT":1.682e-5,"MEAN_MOTION_DDOT":0},{"OBJECT_NAME":"STARLINK-31600","OBJECT_ID":"2024-057X","EPOCH":"2025-08-09T12:49:51.991392","MEAN_MOTION":15.27591403,"ECCENTRICITY":0.0001045,"INCLINATION":43.0009,"RA_OF_ASC_NODE":312.9223,"ARG_OF_PERICENTER":268.3543,"MEAN_ANOMALY":91.7189,"EPHEMERIS_TYPE":0,"CLASSIFICATION_TYPE":"U","NORAD_CAT_ID":59341,"ELEMENT_SET_NO":999,"REV_AT_EPOCH":7730,"BSTAR":6.3516e-5,"MEAN_MOTION_DOT":1.487e-5,"MEAN_MOTION_DDOT":0},{"OBJECT_NAME":"STARLINK-31628","OBJECT_ID":"2024-057Y","EPOCH":"2025-08-09T13:13:16.114080","MEAN_MOTION":15.27580892,"ECCENTRICITY":0.0001277,"INCLINATION":43.0018,"RA_OF_ASC_NODE":305.2554,"ARG_OF_PERICENTER":304.461,"MEAN_ANOMALY":55.612,"EPHEMERIS_TYPE":0,"CLASSIFICATION_TYPE":"U","NORAD_CAT_ID":59342,"ELEMENT_SET_NO":999,"REV_AT_EPOCH":7739,"BSTAR":0.0001069,"MEAN_MOTION_DOT":2.681e-5,"MEAN_MOTION_DDOT":0},{"OBJECT_NAME":"STARLINK-31605","OBJECT_ID":"2024-060A","EPOCH":"2025-08-09T16:34:30.153792","MEAN_MOTION":15.2759053,"ECCENTRICITY":5.08e-5,"INCLINATION":42.9989,"RA_OF_ASC_NODE":6.449,"ARG_OF_PERICENTER":268.956,"MEAN_ANOMALY":91.1234,"EPHEMERIS_TYPE":0,"CLASSIFICATION_TYPE":"U","NORAD_CAT_ID":59348,"ELEMENT_SET_NO":999,"REV_AT_EPOCH":7769,"BSTAR":0.00013976,"MEAN_MOTION_DOT":3.587e-5,"MEAN_MOTION_DDOT":0},{"OBJECT_NAME":"STARLINK-31532","OBJECT_ID":"2024-060B","EPOCH":"2025-08-09T18:39:52.473024","MEAN_MOTION":15.27601146,"ECCENTRICITY":0.0001655,"INCLINATION":43.0032,"RA_OF_ASC_NODE":16.6272,"ARG_OF_PERICENTER":269.5391,"MEAN_ANOMALY":90.5271,"EPHEMERIS_TYPE":0,"CLASSIFICATION_TYPE":"U","NORAD_CAT_ID":59349,"ELEMENT_SET_NO":999,"REV_AT_EPOCH":7769,"BSTAR":0.00012636,"MEAN_MOTION_DOT":3.219e-5,"MEAN_MOTION_DDOT":0},{"OBJECT_NAME":"STARLINK-31593","OBJECT_ID":"2024-060C","EPOCH":"2025-08-09T11:40:42.804192","MEAN_MOTION":15.27581036,"ECCENTRICITY":0.0001159,"INCLINATION":43.0035,"RA_OF_ASC_NODE":17.8813,"ARG_OF_PERICENTER":270.674,"MEAN_ANOMALY":89.3978,"EPHEMERIS_TYPE":0,"CLASSIFICATION_TYPE":"U","NORAD_CAT_ID":59350,"ELEMENT_SET_NO":999,"REV_AT_EPOCH":7761,"BSTAR":9.9277e-5,"MEAN_MOTION_DOT":2.471e-5,"MEAN_MOTION_DDOT":0},{"OBJECT_NAME":"STARLINK-31555","OBJECT_ID":"2024-060D","EPOCH":"2025-08-09T17:16:49.130976","MEAN_MOTION":15.2759537,"ECCENTRICITY":0.0001735,"INCLINATION":42.9999,"RA_OF_ASC_NODE":17.052,"ARG_OF_PERICENTER":283.8029,"MEAN_ANOMALY":76.2629,"EPHEMERIS_TYPE":0,"CLASSIFICATION_TYPE":"U","NORAD_CAT_ID":59351,"ELEMENT_SET_NO":999,"REV_AT_EPOCH":7768,"BSTAR":9.0882e-5,"MEAN_MOTION_DOT":2.241e-5,"MEAN_MOTION_DDOT":0},{"OBJECT_NAME":"STARLINK-31561","OBJECT_ID":"2024-060E","EPOCH":"2025-08-09T17:53:37.678272","MEAN_MOTION":15.27610069,"ECCENTRICITY":8.71e-5,"INCLINATION":43.0037,"RA_OF_ASC_NODE":16.3844,"ARG_OF_PERICENTER":272.8926,"MEAN_ANOMALY":87.1826,"EPHEMERIS_TYPE":0,"CLASSIFICATION_TYPE":"U","NORAD_CAT_ID":59352,"ELEMENT_SET_NO":999,"REV_AT_EPOCH":7763,"BSTAR":0.00012742,"MEAN_MOTION_DOT":3.249e-5,"MEAN_MOTION_DDOT":0},{"OBJECT_NAME":"STARLINK-31413","OBJECT_ID":"2024-060F","EPOCH":"2025-08-09T04:06:35.278560","MEAN_MOTION":15.27584212,"ECCENTRICITY":0.0001621,"INCLINATION":43.004,"RA_OF_ASC_NODE":19.811,"ARG_OF_PERICENTER":264.0821,"MEAN_ANOMALY":95.9846,"EPHEMERIS_TYPE":0,"CLASSIFICATION_TYPE":"U","NORAD_CAT_ID":59353,"ELEMENT_SET_NO":999,"REV_AT_EPOCH":7755,"BSTAR":0.00011901,"MEAN_MOTION_DOT":3.014e-5,"MEAN_MOTION_DDOT":0},{"OBJECT_NAME":"STARLINK-31422","OBJECT_ID":"2024-060G","EPOCH":"2025-08-09T17:48:16.298784","MEAN_MOTION":15.27593985,"ECCENTRICITY":0.0001284,"INCLINATION":43.0047,"RA_OF_ASC_NODE":17.2155,"ARG_OF_PERICENTER":284.5134,"MEAN_ANOMALY":75.5575,"EPHEMERIS_TYPE":0,"CLASSIFICATION_TYPE":"U","NORAD_CAT_ID":59354,"ELEMENT_SET_NO":999,"REV_AT_EPOCH":7763,"BSTAR":0.00013986,"MEAN_MOTION_DOT":3.59e-5,"MEAN_MOTION_DDOT":0},{"OBJECT_NAME":"STARLINK-31416","OBJECT_ID":"2024-060H","EPOCH":"2025-08-09T03:03:52.842816","MEAN_MOTION":15.27590107,"ECCENTRICITY":0.0001448,"INCLINATION":43.0018,"RA_OF_ASC_NODE":20.3417,"ARG_OF_PERICENTER":270.1186,"MEAN_ANOMALY":89.95,"EPHEMERIS_TYPE":0,"CLASSIFICATION_TYPE":"U","NORAD_CAT_ID":59355,"ELEMENT_SET_NO":999,"REV_AT_EPOCH":7755,"BSTAR":6.9939e-5,"MEAN_MOTION_DOT":1.663e-5,"MEAN_MOTION_DDOT":0},{"OBJECT_NAME":"STARLINK-31552","OBJECT_ID":"2024-060J","EPOCH":"2025-08-09T17:42:45.704736","MEAN_MOTION":15.27603962,"ECCENTRICITY":9.31e-5,"INCLINATION":43.0011,"RA_OF_ASC_NODE":17.2003,"ARG_OF_PERICENTER":296.9355,"MEAN_ANOMALY":63.1402,"EPHEMERIS_TYPE":0,"CLASSIFICATION_TYPE":"U","NORAD_CAT_ID":59356,"ELEMENT_SET_NO":999,"REV_AT_EPOCH":7764,"BSTAR":-0.00016417,"MEAN_MOTION_DOT":-4.78e-5,"MEAN_MOTION_DDOT":0}]
